[{"OBJECT_NAME":"SVYATOBOR 1 (RS60S)","OBJECT_ID":"2023-091X","EPOCH":"2026-03-09T23:06:11.081664","MEAN_MOTION":15.2482043,"ECCENTRICITY":0.00111996,"INCLINATION":97.5206,"RA_OF_ASC_NODE":132.3062,"ARG_OF_PERICENTER":84.4206,"MEAN_ANOMALY":275.8308,"EPHEMERIS_TYPE":0,"CLASSIFICATION_TYPE":"U","NORAD_CAT_ID":57187,"ELEMENT_SET_NO":999,"REV_AT_EPOCH":14918,"BSTAR":0.00046454276,"MEAN_MOTION_DOT":0.00011484,"MEAN_MOTION_DDOT":0},{"OBJECT_NAME":"STARLINK-31625","OBJECT_ID":"2024-068D","EPOCH":"2026-03-09T07:25:14.902464","MEAN_MOTION":15.27570468,"ECCENTRICITY":0.00014596,"INCLINATION":43.0049,"RA_OF_ASC_NODE":36.7415,"ARG_OF_PERICENTER":268.0898,"MEAN_ANOMALY":91.9787,"EPHEMERIS_TYPE":0,"CLASSIFICATION_TYPE":"U","NORAD_CAT_ID":59458,"ELEMENT_SET_NO":999,"REV_AT_EPOCH":10846,"BSTAR":-6.8041542e-5,"MEAN_MOTION_DOT":-2.133e-5,"MEAN_MOTION_DDOT":0}]
